{"type": "FeatureCollection", "features": [ {"type": "Feature", "properties": {"norad_id": 44622, "name": "GAOFEN-10R", "group": "resource", "lat": -39.59125834057018, "lon": -54.872461897522825, "alt_km": 625.131247182082, "timestamp": "2025-12-16T21:38:56.827481+00:00", "meta": {"OBJECT_NAME": "GAOFEN-10R", "OBJECT_ID": "2019-066A", "EPOCH": "2025-12-16T08:52:22.709856", "MEAN_MOTION": 14.8280489, "ECCENTRICITY": 0.00076455, "INCLINATION": 98.0282, "RA_OF_ASC_NODE": 297.8901, "ARG_OF_PERICENTER": 31.4355, "MEAN_ANOMALY": 328.7314, "EPHEMERIS_TYPE": 0, "CLASSIFICATION_TYPE": "U", "NORAD_CAT_ID": 44622, "ELEMENT_SET_NO": 999, "REV_AT_EPOCH": 33528, "BSTAR": 0.00019518851, "MEAN_MOTION_DOT": 1.525e-05, "MEAN_MOTION_DDOT": 0}, "tle": {"line1": "1 44622U 19066A   25350.36970729  .00001525  00000+0  19519-3 0  9998", "line2": "2 44622  98.0282 297.8901 0007645  31.4355 328.7314 14.82804890335281"}}, "geometry": {"type": "Point", "coordinates": [-54.872461897522825, -39.59125834057018]}}, {"type": "Feature", "properties": {"norad_id": 44804, "name": "CARTOSAT-3", "group": "resource", "lat": -52.09020290335654, "lon": 60.11771741371037, "alt_km": 520.464228582241, "timestamp": "2025-12-16T21:38:56.827491+00:00", "meta": {"OBJECT_NAME": "CARTOSAT-3", "OBJECT_ID": "2019-081A", "EPOCH": "2025-12-16T07:39:13.264992", "MEAN_MOTION": 15.19183938, "ECCENTRICITY": 0.00139923, "INCLINATION": 97.4584, "RA_OF_ASC_NODE": 49.8574, "ARG_OF_PERICENTER": 71.886, "MEAN_ANOMALY": 288.3897, "EPHEMERIS_TYPE": 0, "CLASSIFICATION_TYPE": "U", "NORAD_CAT_ID": 44804, "ELEMENT_SET_NO": 999, "REV_AT_EPOCH": 33570, "BSTAR": 0.00019948824, "MEAN_MOTION_DOT": 4.138e-05, "MEAN_MOTION_DDOT": 0}, "tle": {"line1": "1 44804U 19081A   25350.31890353  .00004138  00000+0  19949-3 0  9996", "line2": "2 44804  97.4584  49.8574 0013992  71.8860 288.3897 15.19183938335701"}}, "geometry": {"type": "Point", "coordinates": [60.11771741371037, -52.09020290335654]}}, {"type": "Feature", "properties": {"norad_id": 44819, "name": "GAOFEN-12 01", "group": "resource", "lat": -15.009600810965292, "lon": 174.96416200529785, "alt_km": 630.9631441410329, "timestamp": "2025-12-16T21:38:56.827501+00:00", "meta": {"OBJECT_NAME": "GAOFEN-12 01", "OBJECT_ID": "2019-082A", "EPOCH": "2025-12-16T07:47:44.988000", "MEAN_MOTION": 14.80661725, "ECCENTRICITY": 0.00015234, "INCLINATION": 97.8125, "RA_OF_ASC_NODE": 356.5118, "ARG_OF_PERICENTER": 213.3927, "MEAN_ANOMALY": 146.719, "EPHEMERIS_TYPE": 0, "CLASSIFICATION_TYPE": "U", "NORAD_CAT_ID": 44819, "ELEMENT_SET_NO": 999, "REV_AT_EPOCH": 32703, "BSTAR": 7.1804966e-05, "MEAN_MOTION_DOT": 5.01e-06, "MEAN_MOTION_DDOT": 0}, "tle": {"line1": "1 44819U 19082A   25350.32482625  .00000501  00000+0  71805-4 0  9993", "line2": "2 44819  97.8125 356.5118 0001523 213.3927 146.7190 14.80661725327030"}}, "geometry": {"type": "Point", "coordinates": [174.96416200529785, -15.009600810965292]}}, {"type": "Feature", "properties": {"norad_id": 44873, "name": "CSG-1", "group": "resource", "lat": -31.367955720784988, "lon": 177.0073595229816, "alt_km": 629.0990687078256, "timestamp": "2025-12-16T21:38:56.827512+00:00", "meta": {"OBJECT_NAME": "CSG-1", "OBJECT_ID": "2019-092A", "EPOCH": "2025-12-16T10:27:00.089280", "MEAN_MOTION": 14.82145521, "ECCENTRICITY": 0.0001487, "INCLINATION": 97.8809, "RA_OF_ASC_NODE": 171.7039, "ARG_OF_PERICENTER": 86.8831, "MEAN_ANOMALY": 273.2552, "EPHEMERIS_TYPE": 0, "CLASSIFICATION_TYPE": "U", "NORAD_CAT_ID": 44873, "ELEMENT_SET_NO": 999, "REV_AT_EPOCH": 32440, "BSTAR": 9.6665e-05, "MEAN_MOTION_DOT": 7.17e-06, "MEAN_MOTION_DDOT": 0}, "tle": {"line1": "1 44873U 19092A   25350.43541770  .00000717  00000+0  96665-4 0  9993", "line2": "2 44873  97.8809 171.7039 0001487  86.8831 273.2552 14.82145521324403"}}, "geometry": {"type": "Point", "coordinates": [177.0073595229816, -31.367955720784988]}}, {"type": "Feature", "properties": {"norad_id": 46277, "name": "NEMO-HD", "group": "resource", "lat": -79.25148105283566, "lon": 91.85806683595474, "alt_km": 453.0352299155111, "timestamp": "2025-12-16T21:38:56.827522+00:00", "meta": {"OBJECT_NAME": "NEMO-HD", "OBJECT_ID": "2020-061F", "EPOCH": "2025-12-16T07:58:24.183840", "MEAN_MOTION": 15.40404762, "ECCENTRICITY": 0.00016594, "INCLINATION": 97.2215, "RA_OF_ASC_NODE": 49.3846, "ARG_OF_PERICENTER": 53.8345, "MEAN_ANOMALY": 306.3055, "EPHEMERIS_TYPE": 0, "CLASSIFICATION_TYPE": "U", "NORAD_CAT_ID": 46277, "ELEMENT_SET_NO": 999, "REV_AT_EPOCH": 29379, "BSTAR": 0.00021113936, "MEAN_MOTION_DOT": 8.455e-05, "MEAN_MOTION_DDOT": 0}, "tle": {"line1": "1 46277U 20061F   25350.33222435  .00008455  00000+0  21114-3 0  9997", "line2": "2 46277  97.2215  49.3846 0001659  53.8345 306.3055 15.40404762293792"}}, "geometry": {"type": "Point", "coordinates": [91.85806683595474, -79.25148105283566]}}, {"type": "Feature", "properties": {"norad_id": 46984, "name": "SENTINEL-6A", "group": "resource", "lat": -28.18528944320512, "lon": -12.552049621092884, "alt_km": 1339.372351066907, "timestamp": "2025-12-16T21:38:56.827532+00:00", "meta": {"OBJECT_NAME": "SENTINEL-6A", "OBJECT_ID": "2020-086A", "EPOCH": "2025-12-16T03:41:09.449376", "MEAN_MOTION": 12.80930741, "ECCENTRICITY": 0.00077163, "INCLINATION": 66.039, "RA_OF_ASC_NODE": 155.2173, "ARG_OF_PERICENTER": 269.2946, "MEAN_ANOMALY": 90.7185, "EPHEMERIS_TYPE": 0, "CLASSIFICATION_TYPE": "U", "NORAD_CAT_ID": 46984, "ELEMENT_SET_NO": 999, "REV_AT_EPOCH": 23688, "BSTAR": 9.7652473e-05, "MEAN_MOTION_DOT": -3.9e-07, "MEAN_MOTION_DDOT": 0}, "tle": {"line1": "1 46984U 20086A   25350.15358159 -.00000039  00000+0  97652-4 0  9994", "line2": "2 46984  66.0390 155.2173 0007716 269.2946  90.7185 12.80930741236882"}}, "geometry": {"type": "Point", "coordinates": [-12.552049621092884, -28.18528944320512]}}, {"type": "Feature", "properties": {"norad_id": 48079, "name": "GAOFEN-12 02", "group": "resource", "lat": -26.528137204318806, "lon": 160.87018845742128, "alt_km": 633.9670462740187, "timestamp": "2025-12-16T21:38:56.827542+00:00", "meta": {"OBJECT_NAME": "GAOFEN-12 02", "OBJECT_ID": "2021-026A", "EPOCH": "2025-12-16T06:07:19.374240", "MEAN_MOTION": 14.80679301, "ECCENTRICITY": 0.00035941, "INCLINATION": 97.9852, "RA_OF_ASC_NODE": 344.2445, "ARG_OF_PERICENTER": 94.0705, "MEAN_ANOMALY": 266.0918, "EPHEMERIS_TYPE": 0, "CLASSIFICATION_TYPE": "U", "NORAD_CAT_ID": 48079, "ELEMENT_SET_NO": 999, "REV_AT_EPOCH": 25469, "BSTAR": 6.8721214e-05, "MEAN_MOTION_DOT": 4.75e-06, "MEAN_MOTION_DDOT": 0}, "tle": {"line1": "1 48079U 21026A   25350.25508535  .00000475  00000+0  68721-4 0  9990", "line2": "2 48079  97.9852 344.2445 0003594  94.0705 266.0918 14.80679301254699"}}, "geometry": {"type": "Point", "coordinates": [160.87018845742128, -26.528137204318806]}}, {"type": "Feature", "properties": {"norad_id": 48268, "name": "PLEIADES NEO 3", "group": "resource", "lat": -69.99770020951205, "lon": 85.69127244793583, "alt_km": 632.2294607133736, "timestamp": "2025-12-16T21:38:56.827552+00:00", "meta": {"OBJECT_NAME": "PLEIADES NEO 3", "OBJECT_ID": "2021-034A", "EPOCH": "2025-12-16T12:14:49.336800", "MEAN_MOTION": 14.81671053, "ECCENTRICITY": 0.000131, "INCLINATION": 97.8948, "RA_OF_ASC_NODE": 62.8972, "ARG_OF_PERICENTER": 96.3461, "MEAN_ANOMALY": 263.7901, "EPHEMERIS_TYPE": 0, "CLASSIFICATION_TYPE": "U", "NORAD_CAT_ID": 48268, "ELEMENT_SET_NO": 999, "REV_AT_EPOCH": 25060, "BSTAR": 0.00011659, "MEAN_MOTION_DOT": 8.66e-06, "MEAN_MOTION_DDOT": 0}, "tle": {"line1": "1 48268U 21034A   25350.51029325  .00000866  00000+0  11659-3 0  9994", "line2": "2 48268  97.8948  62.8972 0001310  96.3461 263.7901 14.81671053250600"}}, "geometry": {"type": "Point", "coordinates": [85.69127244793583, -69.99770020951205]}}, {"type": "Feature", "properties": {"norad_id": 49070, "name": "PLEIADES NEO 4", "group": "resource", "lat": 69.8712922909356, "lon": -94.47473128084647, "alt_km": 616.4506153406082, "timestamp": "2025-12-16T21:38:56.827563+00:00", "meta": {"OBJECT_NAME": "PLEIADES NEO 4", "OBJECT_ID": "2021-073E", "EPOCH": "2025-12-16T08:11:41.417376", "MEAN_MOTION": 14.81670492, "ECCENTRICITY": 0.00012796, "INCLINATION": 97.8946, "RA_OF_ASC_NODE": 62.7265, "ARG_OF_PERICENTER": 89.6662, "MEAN_ANOMALY": 270.4697, "EPHEMERIS_TYPE": 0, "CLASSIFICATION_TYPE": "U", "NORAD_CAT_ID": 49070, "ELEMENT_SET_NO": 999, "REV_AT_EPOCH": 23429, "BSTAR": -4.3215141e-05, "MEAN_MOTION_DOT": -3.92e-06, "MEAN_MOTION_DDOT": 0}, "tle": {"line1": "1 49070U 21073E   25350.34145159 -.00000392  00000+0 -43215-4 0  9994", "line2": "2 49070  97.8946  62.7265 0001279  89.6662 270.4697 14.81670492234296"}}, "geometry": {"type": "Point", "coordinates": [-94.47473128084647, 69.8712922909356]}}, {"type": "Feature", "properties": {"norad_id": 49260, "name": "LANDSAT 9", "group": "resource", "lat": 61.191432306915004, "lon": -105.82891567758341, "alt_km": 695.8917431156588, "timestamp": "2025-12-16T21:38:56.827573+00:00", "meta": {"OBJECT_NAME": "LANDSAT 9", "OBJECT_ID": "2021-088A", "EPOCH": "2025-12-16T06:16:42.225312", "MEAN_MOTION": 14.57101655, "ECCENTRICITY": 0.00011347, "INCLINATION": 98.2092, "RA_OF_ASC_NODE": 58.3216, "ARG_OF_PERICENTER": 89.6816, "MEAN_ANOMALY": 270.4513, "EPHEMERIS_TYPE": 0, "CLASSIFICATION_TYPE": "U", "NORAD_CAT_ID": 49260, "ELEMENT_SET_NO": 999, "REV_AT_EPOCH": 22436, "BSTAR": 0.00010313817, "MEAN_MOTION_DOT": 4.19e-06, "MEAN_MOTION_DDOT": 0}, "tle": {"line1": "1 49260U 21088A   25350.26159983  .00000419  00000+0  10314-3 0  9993", "line2": "2 49260  98.2092  58.3216 0001134  89.6816 270.4513 14.57101655224369"}}, "geometry": {"type": "Point", "coordinates": [-105.82891567758341, 61.191432306915004]}}]}